{"fetched_at":"2026-07-14T17:40:25.184Z","source":"https://celestrak.org/NORAD/elements/gp.php?GROUP=planet&FORMAT=JSON","constellation":"superdove","records":[{"OBJECT_NAME":"FLOCK 4BE-17","OBJECT_ID":"2024-149AA","EPOCH":"2026-07-14T04:23:57.411168","CLASSIFICATION_TYPE":"U","MEAN_MOTION":15.40551532,"ECCENTRICITY":0.0004082,"INCLINATION":97.3777,"RA_OF_ASC_NODE":278.778,"ARG_OF_PERICENTER":146.0709,"MEAN_ANOMALY":214.0799,"EPHEMERIS_TYPE":0,"NORAD_CAT_ID":60492,"ELEMENT_SET_NO":999,"REV_AT_EPOCH":10641,"BSTAR":0.00025674,"MEAN_MOTION_DOT":0.0001035,"MEAN_MOTION_DDOT":0},{"OBJECT_NAME":"FLOCK 4BE-22","OBJECT_ID":"2024-149AC","EPOCH":"2026-07-14T04:55:36.465024","CLASSIFICATION_TYPE":"U","MEAN_MOTION":15.41966753,"ECCENTRICITY":0.0004629,"INCLINATION":97.3737,"RA_OF_ASC_NODE":279.036,"ARG_OF_PERICENTER":157.3175,"MEAN_ANOMALY":202.8278,"EPHEMERIS_TYPE":0,"NORAD_CAT_ID":60494,"ELEMENT_SET_NO":999,"REV_AT_EPOCH":10646,"BSTAR":0.00023031,"MEAN_MOTION_DOT":0.00009723,"MEAN_MOTION_DDOT":0},{"OBJECT_NAME":"FLOCK 4BE-34","OBJECT_ID":"2024-149AD","EPOCH":"2026-07-14T03:47:25.013760","CLASSIFICATION_TYPE":"U","MEAN_MOTION":15.41930282,"ECCENTRICITY":0.0004842,"INCLINATION":97.3785,"RA_OF_ASC_NODE":279.8275,"ARG_OF_PERICENTER":164.3719,"MEAN_ANOMALY":195.7679,"EPHEMERIS_TYPE":0,"NORAD_CAT_ID":60495,"ELEMENT_SET_NO":999,"REV_AT_EPOCH":10648,"BSTAR":0.00023812,"MEAN_MOTION_DOT":0.00010044,"MEAN_MOTION_DDOT":0},{"OBJECT_NAME":"FLOCK 4BE-32","OBJECT_ID":"2024-149AF","EPOCH":"2026-07-14T04:08:45.587040","CLASSIFICATION_TYPE":"U","MEAN_MOTION":15.43063214,"ECCENTRICITY":0.0004939,"INCLINATION":97.3723,"RA_OF_ASC_NODE":279.407,"ARG_OF_PERICENTER":163.2828,"MEAN_ANOMALY":196.8584,"EPHEMERIS_TYPE":0,"NORAD_CAT_ID":60497,"ELEMENT_SET_NO":999,"REV_AT_EPOCH":10649,"BSTAR":0.00025403,"MEAN_MOTION_DOT":0.00011138,"MEAN_MOTION_DDOT":0},{"OBJECT_NAME":"FLOCK 4BE-11","OBJECT_ID":"2024-149AK","EPOCH":"2026-07-14T03:40:44.688864","CLASSIFICATION_TYPE":"U","MEAN_MOTION":15.43853605,"ECCENTRICITY":0.0004772,"INCLINATION":97.3703,"RA_OF_ASC_NODE":279.6434,"ARG_OF_PERICENTER":161.4068,"MEAN_ANOMALY":198.7356,"EPHEMERIS_TYPE":0,"NORAD_CAT_ID":60501,"ELEMENT_SET_NO":999,"REV_AT_EPOCH":10651,"BSTAR":0.00024832,"MEAN_MOTION_DOT":0.0001118,"MEAN_MOTION_DDOT":0},{"OBJECT_NAME":"FLOCK 4BE-24","OBJECT_ID":"2024-149AP","EPOCH":"2026-07-14T04:50:47.748192","CLASSIFICATION_TYPE":"U","MEAN_MOTION":15.44075487,"ECCENTRICITY":0.0005121,"INCLINATION":97.3716,"RA_OF_ASC_NODE":279.9607,"ARG_OF_PERICENTER":174.0171,"MEAN_ANOMALY":186.114,"EPHEMERIS_TYPE":0,"NORAD_CAT_ID":60505,"ELEMENT_SET_NO":999,"REV_AT_EPOCH":10653,"BSTAR":0.00028162,"MEAN_MOTION_DOT":0.0001279,"MEAN_MOTION_DDOT":0},{"OBJECT_NAME":"FLOCK 4BE-29","OBJECT_ID":"2024-149AT","EPOCH":"2026-07-14T04:39:01.188864","CLASSIFICATION_TYPE":"U","MEAN_MOTION":15.45422356,"ECCENTRICITY":0.0003394,"INCLINATION":97.3816,"RA_OF_ASC_NODE":281.4914,"ARG_OF_PERICENTER":178.2968,"MEAN_ANOMALY":181.8293,"EPHEMERIS_TYPE":0,"NORAD_CAT_ID":60509,"ELEMENT_SET_NO":999,"REV_AT_EPOCH":10658,"BSTAR":0.00059684,"MEAN_MOTION_DOT":0.00028526,"MEAN_MOTION_DDOT":0},{"OBJECT_NAME":"FLOCK 4BE-2","OBJECT_ID":"2024-149AV","EPOCH":"2026-07-14T03:56:18.652128","CLASSIFICATION_TYPE":"U","MEAN_MOTION":15.5580907,"ECCENTRICITY":0.0005377,"INCLINATION":97.3834,"RA_OF_ASC_NODE":283.2891,"ARG_OF_PERICENTER":177.0226,"MEAN_ANOMALY":183.1061,"EPHEMERIS_TYPE":0,"NORAD_CAT_ID":60511,"ELEMENT_SET_NO":999,"REV_AT_EPOCH":10669,"BSTAR":0.000663,"MEAN_MOTION_DOT":0.000459,"MEAN_MOTION_DDOT":0},{"OBJECT_NAME":"FLOCK 4BE-13","OBJECT_ID":"2024-149AW","EPOCH":"2026-07-13T18:11:24.584352","CLASSIFICATION_TYPE":"U","MEAN_MOTION":15.42590436,"ECCENTRICITY":0.0004975,"INCLINATION":97.3725,"RA_OF_ASC_NODE":279.4573,"ARG_OF_PERICENTER":160.6063,"MEAN_ANOMALY":199.5375,"EPHEMERIS_TYPE":0,"NORAD_CAT_ID":60512,"ELEMENT_SET_NO":999,"REV_AT_EPOCH":10646,"BSTAR":0.00019889,"MEAN_MOTION_DOT":0.00008562,"MEAN_MOTION_DDOT":0},{"OBJECT_NAME":"FLOCK 4BE-27","OBJECT_ID":"2024-149AX","EPOCH":"2026-07-14T04:31:02.841312","CLASSIFICATION_TYPE":"U","MEAN_MOTION":15.34905449,"ECCENTRICITY":0.0003882,"INCLINATION":97.3827,"RA_OF_ASC_NODE":277.0593,"ARG_OF_PERICENTER":184.5793,"MEAN_ANOMALY":175.5415,"EPHEMERIS_TYPE":0,"NORAD_CAT_ID":60513,"ELEMENT_SET_NO":999,"REV_AT_EPOCH":10628,"BSTAR":0.00017333,"MEAN_MOTION_DOT":0.00005787,"MEAN_MOTION_DDOT":0},{"OBJECT_NAME":"FLOCK 4BE-9","OBJECT_ID":"2024-149AY","EPOCH":"2026-07-14T03:57:08.737344","CLASSIFICATION_TYPE":"U","MEAN_MOTION":15.41575592,"ECCENTRICITY":0.0003657,"INCLINATION":97.3791,"RA_OF_ASC_NODE":279.7119,"ARG_OF_PERICENTER":174.2676,"MEAN_ANOMALY":185.8614,"EPHEMERIS_TYPE":0,"NORAD_CAT_ID":60514,"ELEMENT_SET_NO":999,"REV_AT_EPOCH":10647,"BSTAR":0.00023195,"MEAN_MOTION_DOT":0.00009664,"MEAN_MOTION_DDOT":0},{"OBJECT_NAME":"FLOCK 4BE-6","OBJECT_ID":"2024-149BA","EPOCH":"2026-07-14T03:36:30.525984","CLASSIFICATION_TYPE":"U","MEAN_MOTION":15.40297101,"ECCENTRICITY":0.0004175,"INCLINATION":97.3792,"RA_OF_ASC_NODE":279.0032,"ARG_OF_PERICENTER":176.6437,"MEAN_ANOMALY":183.4838,"EPHEMERIS_TYPE":0,"NORAD_CAT_ID":60516,"ELEMENT_SET_NO":999,"REV_AT_EPOCH":10642,"BSTAR":0.00021959,"MEAN_MOTION_DOT":0.00008764,"MEAN_MOTION_DDOT":0},{"OBJECT_NAME":"FLOCK 4BE-14","OBJECT_ID":"2024-149BB","EPOCH":"2026-07-14T04:09:25.756992","CLASSIFICATION_TYPE":"U","MEAN_MOTION":15.41833041,"ECCENTRICITY":0.0005368,"INCLINATION":97.3696,"RA_OF_ASC_NODE":279.1889,"ARG_OF_PERICENTER":180.0128,"MEAN_ANOMALY":180.112,"EPHEMERIS_TYPE":0,"NORAD_CAT_ID":60517,"ELEMENT_SET_NO":999,"REV_AT_EPOCH":10648,"BSTAR":0.00024757,"MEAN_MOTION_DOT":0.00010414,"MEAN_MOTION_DDOT":0},{"OBJECT_NAME":"FLOCK 4BE-1","OBJECT_ID":"2024-149BC","EPOCH":"2026-07-14T03:51:22.434048","CLASSIFICATION_TYPE":"U","MEAN_MOTION":15.43486757,"ECCENTRICITY":0.0005059,"INCLINATION":97.3782,"RA_OF_ASC_NODE":280.5514,"ARG_OF_PERICENTER":179.5414,"MEAN_ANOMALY":180.5839,"EPHEMERIS_TYPE":0,"NORAD_CAT_ID":60518,"ELEMENT_SET_NO":999,"REV_AT_EPOCH":10653,"BSTAR":0.00025425,"MEAN_MOTION_DOT":0.00011308,"MEAN_MOTION_DDOT":0},{"OBJECT_NAME":"FLOCK 4BE-28","OBJECT_ID":"2024-149BD","EPOCH":"2026-07-14T04:44:34.812096","CLASSIFICATION_TYPE":"U","MEAN_MOTION":15.46236661,"ECCENTRICITY":0.0004839,"INCLINATION":97.3755,"RA_OF_ASC_NODE":281.4009,"ARG_OF_PERICENTER":178.6916,"MEAN_ANOMALY":181.4347,"EPHEMERIS_TYPE":0,"NORAD_CAT_ID":60519,"ELEMENT_SET_NO":999,"REV_AT_EPOCH":10661,"BSTAR":0.0006105,"MEAN_MOTION_DOT":0.00030017,"MEAN_MOTION_DDOT":0},{"OBJECT_NAME":"FLOCK 4BE-5","OBJECT_ID":"2024-149CV","EPOCH":"2026-07-14T04:13:33.779424","CLASSIFICATION_TYPE":"U","MEAN_MOTION":15.41023491,"ECCENTRICITY":0.000388,"INCLINATION":97.3851,"RA_OF_ASC_NODE":279.4488,"ARG_OF_PERICENTER":174.0671,"MEAN_ANOMALY":186.0622,"EPHEMERIS_TYPE":0,"NORAD_CAT_ID":60559,"ELEMENT_SET_NO":999,"REV_AT_EPOCH":10643,"BSTAR":0.00023768,"MEAN_MOTION_DOT":0.00009725,"MEAN_MOTION_DDOT":0}]}
